H1 CPF  1  HTS 2005 12  5 12   839    lageos1       NONE
H2  7603901 1155     8820 2005 12 05  0  0  0 2005 12 13  0  0  0   300 1 1  0 0 0
H5  0.2510 
H9 
10 0 53712  40500.00000  0       6034177.135       5058469.441      -9461724.392
20 0         -523.399035        -5118.041270        -3097.296060
10 0 53712  40800.00000  0       5787122.572       3485293.249     -10297144.545
20 0        -1122.639932        -5348.982173        -2463.426443
10 0 53712  41100.00001  0       5362013.968       1861708.691     -10935156.794
20 0        -1707.680212        -5453.738750        -1783.347790
10 0 53712  41400.00000  0       4765565.334        225742.291     -11363827.370
20 0        -2262.232593        -5431.672305        -1070.028456
10 0 53712  41700.00000  0       4009292.180      -1384837.410     -11575199.187
20 0        -2770.641389        -5285.129528         -336.972303
10 0 53712  42000.00000  0       3109262.709      -2933401.710     -11565417.372
20 0        -3218.274499        -5019.340731          402.015429
10 0 53712  42300.00000  0       2085734.890      -4385304.247     -11334784.672
20 0        -3591.891200        -4642.259931         1133.061223
10 0 53712  42600.00000  0        962687.587      -5708667.383     -10887747.241
20 0        -3879.979704        -4164.351511         1842.454069
10 0 53712  42900.00000  0       -232744.339      -6875097.142     -10232811.676
20 0        -4073.058760        -3598.327958         2516.872983
10 0 53712  43200.00000  0      -1470919.287      -7860312.695      -9382394.396
20 0        -4163.937608        -2958.843177         3143.610244
10 0 53712  43500.00000  0      -2720409.223      -8644677.741      -8352604.859
20 0        -4147.928631        -2262.145973         3710.789025
10 0 53712  43800.00001  0      -3948775.966      -9213622.584      -7162964.559
20 0        -4023.007043        -1525.698749         4207.573510
10 0 53712  44100.00000  0      -5123386.748      -9557947.307      -5836064.435
20 0        -3789.912118         -767.767147         4624.368883
10 0 53712  44400.00000  0      -6212250.738      -9673998.312      -4397164.212
20 0        -3452.184910           -6.987443         4953.007785
10 0 53712  44700.00000  0      -7184856.812      -9563712.732      -2873738.346
20 0        -3016.138254          738.080293         5186.919125
10 0 53712  45000.00000  0      -8012991.780      -9234527.804      -1294974.546
20 0        -2490.756132         1449.403921         5321.274624
10 0 53712  45300.00000  0      -8671517.663      -8699155.300        308767.713
20 0        -1887.521252         2109.925278         5353.108136
10 0 53712  45600.00000  0      -9139086.566      -7975224.436       1906529.780
20 0        -1220.171876         2703.988963         5281.402958
10 0 53712  45900.00000  0      -9398772.401      -7084800.243       3467347.262
20 0         -504.391359         3217.741759         5107.142762
10 0 53712  46200.00000  0      -9438600.085      -6053788.037       4960852.821
20 0          242.563572         3639.490529         4833.322607
10 0 53712  46500.00001  0      -9251955.090      -4911238.216       6357875.980
20 0         1002.287226         3960.007027         4464.917687
10 0 53712  46800.00000  0      -8837859.074      -3688568.873       7631027.055
20 0         1755.691260         4172.769324         4008.808751
10 0 53712  47100.00000  0      -8201100.913      -2418726.591       8755252.265
20 0         2483.500214         4274.131318         3473.664622
10 0 53712  47400.00000  0      -7352216.411      -1135307.978       9708347.350
20 0         3166.762334         4263.414081         2869.783592
10 0 53712  47700.00000  0      -6307314.306        128333.977      10471417.825
20 0         3787.360985         4142.915317         2208.896768
10 0 53712  48000.00000  0      -5087750.620       1339973.930      11029275.009
20 0         4328.511774         3917.835826         1503.937392
10 0 53712  48300.00000  0      -3719657.867       2469363.858      11370758.367
20 0         4775.230674         3596.124510          768.781090
10 0 53712  48600.00000  0      -2233339.925       3489024.498      11488976.256
20 0         5114.759213         3188.245970           17.962679
10 0 53712  48900.00000  0       -662547.419       4374956.213      11381458.967
20 0         5336.933812         2706.877061         -733.624254
10 0 53712  49200.00001  0        956347.862       5107249.221      11050219.895
20 0         5434.487815         2166.540934        -1471.038234
10 0 53712  49500.00000  0       2585257.835       5670575.944      10501722.762
20 0         5403.276583         1583.189104        -2179.604195
10 0 53712  49800.00000  0       4185338.003       6054551.685       9746754.926
20 0         5242.418097          973.743661        -2845.224022
10 0 53712  50100.00000  0       5717976.159       6253953.650       8800209.003
20 0         4954.343714          355.613058        -3454.676062
10 0 53712  50400.00000  0       7145782.428       6268792.541       7680777.208
20 0         4544.756250         -253.804104        -3995.896206
10 0 53712  50700.00000  0       8433552.832       6104235.365       6410565.068
20 0         4022.495493         -837.612177        -4458.233190
10 0 53712  51000.00000  0       9549178.967       5770382.691       5014633.286
20 0         3399.314385        -1379.893172        -4832.671112
10 0 53712  51300.00000  0      10464477.928       5281908.143       3520478.573
20 0         2689.572450        -1866.148045        -5112.012827
10 0 53712  51600.00000  0      11155919.045       4657572.280       1957465.985
20 0         1909.856405        -2283.690656        -5291.019158
10 0 53712  51900.00001  0      11605227.442       3919626.931        356226.577
20 0         1078.540655        -2621.982251        -5366.500476
10 0 53712  52200.00000  0      11799848.570       3093129.349      -1251965.053
20 0          215.302621        -2872.896805        -5337.359064
10 0 53712  52500.00000  0      11733262.590       2205188.025      -2835818.568
20 0         -659.390868        -3030.910430        -5204.582670
10 0 53712  52800.00000  0      11405142.407       1284163.560      -4364646.705
20 0        -1524.809454        -3093.211203        -4971.191512
10 0 53712  53100.00000  0      10821354.148        358848.640      -5808961.673
20 0        -2360.481236        -3059.728834        -4642.142591
10 0 53712  53400.00000  0       9993803.512       -542349.133      -7141037.065
20 0        -3146.695801        -2933.086577        -4224.196466
10 0 53712  53700.00000  0       8940135.741      -1392198.917      -8335424.942
20 0        -3864.975191        -2718.480371        -3725.752635
10 0 53712  54000.00000  0       7683300.460      -2165391.990      -9369419.629
20 0        -4498.502152        -2423.492287        -3156.660052
10 0 53712  54300.00000  0       6250995.484      -2839222.340     -10223461.734
20 0        -5032.497697        -2057.846723        -2528.009107
10 0 53712  54600.00001  0       4675005.694      -3394186.657     -10881477.716
20 0        -5454.542378        -1633.118442        -1851.910778
10 0 53712  54900.00000  0       2990454.411      -3814490.683     -11331151.879
20 0        -5754.837856        -1162.401833        -1141.267829
10 0 53712  55200.00000  0       1234985.508      -4088451.670     -11564129.034
20 0        -5926.407001         -659.950502         -409.541863
10 0 53712  55500.00000  0       -552105.214      -4208789.359     -11576147.015
20 0        -5965.231870         -140.795879          329.480936
10 0 53712  55800.00000  0      -2330770.709      -4172800.417     -11367098.992
20 0        -5870.329647          379.646947         1061.923271
10 0 53712  56100.00000  0      -4061126.926      -3982413.691     -10941026.057
20 0        -5643.767088          885.978436         1774.047901
10 0 53712  56400.00000  0      -5704362.247      -3644125.864     -10306040.938
20 0        -5290.614263         1363.211461         2452.485472
10 0 53712  56700.00000  0      -7223624.035      -3168819.301      -9474183.976
20 0        -4818.838307         1797.158662         3084.458100
10 0 53712  57000.00000  0      -8584864.395      -2571466.008      -8461212.811
20 0        -4239.137873         2174.803095         3657.997515
10 0 53712  57300.00001  0      -9757627.491      -1870723.842      -7286327.648
20 0        -3564.719264         2484.644731         4162.155955
10 0 53712  57600.00000  0     -10715761.143      -1088433.337      -5971834.659
20 0        -2811.015882         2717.015099         4587.207307
10 0 53712  57900.00000  0     -11438036.089       -249025.921      -4542750.897
20 0        -1995.353680         2864.352113         4924.835166
10 0 53712  58200.00000  0     -11908657.261        621143.350      -3026355.267
20 0        -1136.566735         2921.427116         5168.303773
10 0 53712  58500.00000  0     -12117652.979       1494523.034      -1451691.350
20 0         -254.568902         2885.516449         5312.607135
10 0 53712  58800.00000  0     -12061130.027       2343134.813        150970.604
20 0          630.110447         2756.510599         5354.591352
10 0 53712  59100.00000  0     -11741385.307       3139365.654       1750703.755
20 0         1496.816457         2536.955227         5293.045282
10 0 53712  59400.00000  0     -11166868.082       3856761.538       3316516.640
20 0         2325.272693         2232.020134         5128.755166
10 0 53712  59700.00000  0     -10351990.621       4470800.814       4817955.677
20 0         3096.085591         1849.394274         4864.519656
10 0 53712  60000.00001  0      -9316789.204       4959624.981       6225705.889
20 0         3791.235160         1399.107322         4505.122723
10 0 53712  60300.00000  0      -8086441.811       5304705.294       7512177.038
20 0         4394.537372          893.280892         4057.263302
99